{
  "type": "FeatureCollection",
  "features": [
    {
      "type": "Feature",
      "properties": {
        "norad_id": 66632,
        "name": "STARLINK-35973",
        "group": "last-30-days",
        "lat": 3.157997134453793,
        "lon": -49.16548898433984,
        "alt_km": 448.0966467520675,
        "timestamp": "2025-12-24T03:53:28.360219+00:00",
        "meta_object_name": "STARLINK-35973",
        "meta_object_id": "2025-271R",
        "meta_epoch": "2025-12-23T20:53:55.229568",
        "meta_mean_motion": 15.3964384,
        "meta_eccentricity": 0.0001461,
        "meta_inclination": 53.1592,
        "meta_ra_of_asc_node": 134.5786,
        "meta_arg_of_pericenter": 54.0913,
        "meta_mean_anomaly": 306.0227,
        "meta_ephemeris_type": 0,
        "meta_classification_type": "U",
        "meta_norad_cat_id": 66632,
        "meta_element_set_no": 999,
        "meta_rev_at_epoch": 588,
        "meta_bstar": 0.00086763,
        "meta_mean_motion_dot": 0.00034489,
        "meta_mean_motion_ddot": 0,
        "tle_line1": "1 66632U 25271R   25357.87077812  .00034489  00000+0  86763-3 0  9992",
        "tle_line2": "2 66632  53.1592 134.5786 0001461  54.0913 306.0227 15.39643840  5882"
      },
      "geometry": {
        "type": "Point",
        "coordinates": [
          -49.16548898433984,
          3.157997134453793
        ]
      }
    },
    {
      "type": "Feature",
      "properties": {
        "norad_id": 66633,
        "name": "STARLINK-35948",
        "group": "last-30-days",
        "lat": 1.7004489954184518,
        "lon": -48.07423076453078,
        "alt_km": 447.89397136967455,
        "timestamp": "2025-12-24T03:53:28.360230+00:00",
        "meta_object_name": "STARLINK-35948",
        "meta_object_id": "2025-271S",
        "meta_epoch": "2025-12-23T20:53:26.238912",
        "meta_mean_motion": 15.39641401,
        "meta_eccentricity": 3.21e-05,
        "meta_inclination": 53.1599,
        "meta_ra_of_asc_node": 134.576,
        "meta_arg_of_pericenter": 293.0532,
        "meta_mean_anomaly": 67.0439,
        "meta_ephemeris_type": 0,
        "meta_classification_type": "U",
        "meta_norad_cat_id": 66633,
        "meta_element_set_no": 999,
        "meta_rev_at_epoch": 592,
        "meta_bstar": 0.00074568,
        "meta_mean_motion_dot": 0.00029564,
        "meta_mean_motion_ddot": 0,
        "tle_line1": "1 66633U 25271S   25357.87044258  .00029564  00000+0  74568-3 0  9999",
        "tle_line2": "2 66633  53.1599 134.5760 0000321 293.0532  67.0439 15.39641401  5923"
      },
      "geometry": {
        "type": "Point",
        "coordinates": [
          -48.07423076453078,
          1.7004489954184518
        ]
      }
    },
    {
      "type": "Feature",
      "properties": {
        "norad_id": 66634,
        "name": "STARLINK-35967",
        "group": "last-30-days",
        "lat": -18.702182713546325,
        "lon": -32.14912635630786,
        "alt_km": 449.5704829902943,
        "timestamp": "2025-12-24T03:53:28.360242+00:00",
        "meta_object_name": "STARLINK-35967",
        "meta_object_id": "2025-271T",
        "meta_epoch": "2025-12-23T20:46:44.859936",
        "meta_mean_motion": 15.39629623,
        "meta_eccentricity": 7.86e-05,
        "meta_inclination": 53.1607,
        "meta_ra_of_asc_node": 134.5457,
        "meta_arg_of_pericenter": 213.2636,
        "meta_mean_anomaly": 146.8319,
        "meta_ephemeris_type": 0,
        "meta_classification_type": "U",
        "meta_norad_cat_id": 66634,
        "meta_element_set_no": 999,
        "meta_rev_at_epoch": 588,
        "meta_bstar": 0.0010726,
        "meta_mean_motion_dot": 0.00042757,
        "meta_mean_motion_ddot": 0,
        "tle_line1": "1 66634U 25271T   25357.86579699  .00042757  00000+0  10726-2 0  9995",
        "tle_line2": "2 66634  53.1607 134.5457 0000786 213.2636 146.8319 15.39629623  5881"
      },
      "geometry": {
        "type": "Point",
        "coordinates": [
          -32.14912635630786,
          -18.702182713546325
        ]
      }
    },
    {
      "type": "Feature",
      "properties": {
        "norad_id": 66635,
        "name": "STARLINK-35955",
        "group": "last-30-days",
        "lat": -50.62430247689593,
        "lon": 19.035045512442135,
        "alt_km": 452.8694680972767,
        "timestamp": "2025-12-24T03:53:28.360253+00:00",
        "meta_object_name": "STARLINK-35955",
        "meta_object_id": "2025-271U",
        "meta_epoch": "2025-12-23T20:33:23.258880",
        "meta_mean_motion": 15.39628301,
        "meta_eccentricity": 0.0001505,
        "meta_inclination": 53.1618,
        "meta_ra_of_asc_node": 134.489,
        "meta_arg_of_pericenter": 92.2253,
        "meta_mean_anomaly": 267.8924,
        "meta_ephemeris_type": 0,
        "meta_classification_type": "U",
        "meta_norad_cat_id": 66635,
        "meta_element_set_no": 999,
        "meta_rev_at_epoch": 592,
        "meta_bstar": 0.001005,
        "meta_mean_motion_dot": 0.00040022,
        "meta_mean_motion_ddot": 0,
        "tle_line1": "1 66635U 25271U   25357.85651920  .00040022  00000+0  10050-2 0  9996",
        "tle_line2": "2 66635  53.1618 134.4890 0001505  92.2253 267.8924 15.39628301  5927"
      },
      "geometry": {
        "type": "Point",
        "coordinates": [
          19.035045512442135,
          -50.62430247689593
        ]
      }
    },
    {
      "type": "Feature",
      "properties": {
        "norad_id": 66636,
        "name": "STARLINK-35968",
        "group": "last-30-days",
        "lat": -37.3826713347827,
        "lon": -11.954434581190956,
        "alt_km": 451.9590217679606,
        "timestamp": "2025-12-24T03:53:28.360263+00:00",
        "meta_object_name": "STARLINK-35968",
        "meta_object_id": "2025-271V",
        "meta_epoch": "2025-12-23T20:40:04.402848",
        "meta_mean_motion": 15.39659771,
        "meta_eccentricity": 0.0001084,
        "meta_inclination": 53.1598,
        "meta_ra_of_asc_node": 134.5153,
        "meta_arg_of_pericenter": 75.8209,
        "meta_mean_anomaly": 284.2917,
        "meta_ephemeris_type": 0,
        "meta_classification_type": "U",
        "meta_norad_cat_id": 66636,
        "meta_element_set_no": 999,
        "meta_rev_at_epoch": 592,
        "meta_bstar": 0.0009485,
        "meta_mean_motion_dot": 0.00037777,
        "meta_mean_motion_ddot": 0,
        "tle_line1": "1 66636U 25271V   25357.86116207  .00037777  00000+0  94850-3 0  9996",
        "tle_line2": "2 66636  53.1598 134.5153 0001084  75.8209 284.2917 15.39659771  5928"
      },
      "geometry": {
        "type": "Point",
        "coordinates": [
          -11.954434581190956,
          -37.3826713347827
        ]
      }
    },
    {
      "type": "Feature",
      "properties": {
        "norad_id": 66637,
        "name": "STARLINK-35953",
        "group": "last-30-days",
        "lat": -51.8129437329542,
        "lon": 60.613741132487995,
        "alt_km": 452.1897296942643,
        "timestamp": "2025-12-24T03:53:28.360275+00:00",
        "meta_object_name": "STARLINK-35953",
        "meta_object_id": "2025-271W",
        "meta_epoch": "2025-12-23T18:53:13.265376",
        "meta_mean_motion": 15.39655664,
        "meta_eccentricity": 5.47e-05,
        "meta_inclination": 53.1619,
        "meta_ra_of_asc_node": 134.7643,
        "meta_arg_of_pericenter": 93.4221,
        "meta_mean_anomaly": 266.6847,
        "meta_ephemeris_type": 0,
        "meta_classification_type": "U",
        "meta_norad_cat_id": 66637,
        "meta_element_set_no": 999,
        "meta_rev_at_epoch": 591,
        "meta_bstar": 0.0011114,
        "meta_mean_motion_dot": 0.00044365,
        "meta_mean_motion_ddot": 0,
        "tle_line1": "1 66637U 25271W   25357.78695909  .00044365  00000+0  11114-2 0  9991",
        "tle_line2": "2 66637  53.1619 134.7643 0000547  93.4221 266.6847 15.39655664  5914"
      },
      "geometry": {
        "type": "Point",
        "coordinates": [
          60.613741132487995,
          -51.8129437329542
        ]
      }
    },
    {
      "type": "Feature",
      "properties": {
        "norad_id": 66638,
        "name": "STARLINK-35972",
        "group": "last-30-days",
        "lat": -21.911087959146663,
        "lon": 115.34216672735008,
        "alt_km": 450.4280628087554,
        "timestamp": "2025-12-24T03:53:28.360286+00:00",
        "meta_object_name": "STARLINK-35972",
        "meta_object_id": "2025-271X",
        "meta_epoch": "2025-12-23T18:39:50.827104",
        "meta_mean_motion": 15.3964549,
        "meta_eccentricity": 4.59e-05,
        "meta_inclination": 53.1612,
        "meta_ra_of_asc_node": 134.7044,
        "meta_arg_of_pericenter": 83.4158,
        "meta_mean_anomaly": 276.6899,
        "meta_ephemeris_type": 0,
        "meta_classification_type": "U",
        "meta_norad_cat_id": 66638,
        "meta_element_set_no": 999,
        "meta_rev_at_epoch": 591,
        "meta_bstar": 0.0010278,
        "meta_mean_motion_dot": 0.00040968,
        "meta_mean_motion_ddot": 0,
        "tle_line1": "1 66638U 25271X   25357.77767161  .00040968  00000+0  10278-2 0  9996",
        "tle_line2": "2 66638  53.1612 134.7044 0000459  83.4158 276.6899 15.39645490  5917"
      },
      "geometry": {
        "type": "Point",
        "coordinates": [
          115.34216672735008,
          -21.911087959146663
        ]
      }
    }
  ]
}